[{"OBJECT_NAME":"ONEWEB-0092","OBJECT_ID":"2020-020P","EPOCH":"2025-07-30T21:15:13.428576","MEAN_MOTION":13.11416171,"ECCENTRICITY":0.0001533,"INCLINATION":87.8804,"RA_OF_ASC_NODE":85.0999,"ARG_OF_PERICENTER":84.02,"MEAN_ANOMALY":276.1103,"EPHEMERIS_TYPE":0,"CLASSIFICATION_TYPE":"U","NORAD_CAT_ID":45437,"ELEMENT_SET_NO":999,"REV_AT_EPOCH":26067,"BSTAR":0.0002753,"MEAN_MOTION_DOT":1.1e-6,"MEAN_MOTION_DDOT":0},{"OBJECT_NAME":"ONEWEB-0085","OBJECT_ID":"2020-020Q","EPOCH":"2025-07-30T21:56:43.291680","MEAN_MOTION":13.11418163,"ECCENTRICITY":0.0001615,"INCLINATION":87.881,"RA_OF_ASC_NODE":85.1067,"ARG_OF_PERICENTER":82.3241,"MEAN_ANOMALY":277.807,"EPHEMERIS_TYPE":0,"CLASSIFICATION_TYPE":"U","NORAD_CAT_ID":45438,"ELEMENT_SET_NO":999,"REV_AT_EPOCH":26056,"BSTAR":-0.0013046,"MEAN_MOTION_DOT":-4.5e-6,"MEAN_MOTION_DDOT":0},{"OBJECT_NAME":"ONEWEB-0096","OBJECT_ID":"2020-020R","EPOCH":"2025-07-30T16:40:32.964672","MEAN_MOTION":13.114188,"ECCENTRICITY":0.0001949,"INCLINATION":87.882,"RA_OF_ASC_NODE":85.1176,"ARG_OF_PERICENTER":81.3341,"MEAN_ANOMALY":278.8008,"EPHEMERIS_TYPE":0,"CLASSIFICATION_TYPE":"U","NORAD_CAT_ID":45439,"ELEMENT_SET_NO":999,"REV_AT_EPOCH":26052,"BSTAR":-0.00019593,"MEAN_MOTION_DOT":-5.7e-7,"MEAN_MOTION_DDOT":0},{"OBJECT_NAME":"ONEWEB-0037","OBJECT_ID":"2020-020S","EPOCH":"2025-07-30T21:42:04.959648","MEAN_MOTION":13.11415902,"ECCENTRICITY":0.0001674,"INCLINATION":87.8823,"RA_OF_ASC_NODE":85.0399,"ARG_OF_PERICENTER":81.8592,"MEAN_ANOMALY":278.2726,"EPHEMERIS_TYPE":0,"CLASSIFICATION_TYPE":"U","NORAD_CAT_ID":45440,"ELEMENT_SET_NO":999,"REV_AT_EPOCH":26058,"BSTAR":-0.0015556,"MEAN_MOTION_DOT":-5.39e-6,"MEAN_MOTION_DDOT":0},{"OBJECT_NAME":"ONEWEB-0042","OBJECT_ID":"2020-020T","EPOCH":"2025-07-30T21:55:17.499072","MEAN_MOTION":13.11420748,"ECCENTRICITY":0.000175,"INCLINATION":87.8815,"RA_OF_ASC_NODE":85.0834,"ARG_OF_PERICENTER":83.4022,"MEAN_ANOMALY":276.7305,"EPHEMERIS_TYPE":0,"CLASSIFICATION_TYPE":"U","NORAD_CAT_ID":45441,"ELEMENT_SET_NO":999,"REV_AT_EPOCH":26055,"BSTAR":-0.0011655,"MEAN_MOTION_DOT":-4.0e-6,"MEAN_MOTION_DDOT":0},{"OBJECT_NAME":"ONEWEB-0098","OBJECT_ID":"2020-020U","EPOCH":"2025-07-30T21:49:23.768832","MEAN_MOTION":13.11416649,"ECCENTRICITY":0.0001786,"INCLINATION":87.8814,"RA_OF_ASC_NODE":85.0944,"ARG_OF_PERICENTER":71.3324,"MEAN_ANOMALY":288.7998,"EPHEMERIS_TYPE":0,"CLASSIFICATION_TYPE":"U","NORAD_CAT_ID":45442,"ELEMENT_SET_NO":999,"REV_AT_EPOCH":26053,"BSTAR":-0.0018459,"MEAN_MOTION_DOT":-6.41e-6,"MEAN_MOTION_DDOT":0},{"OBJECT_NAME":"ONEWEB-0055","OBJECT_ID":"2020-020V","EPOCH":"2025-07-30T21:24:59.532480","MEAN_MOTION":13.11415642,"ECCENTRICITY":0.000176,"INCLINATION":87.8806,"RA_OF_ASC_NODE":85.0999,"ARG_OF_PERICENTER":77.398,"MEAN_ANOMALY":282.7344,"EPHEMERIS_TYPE":0,"CLASSIFICATION_TYPE":"U","NORAD_CAT_ID":45443,"ELEMENT_SET_NO":999,"REV_AT_EPOCH":26050,"BSTAR":-0.0004607,"MEAN_MOTION_DOT":-1.51e-6,"MEAN_MOTION_DDOT":0},{"OBJECT_NAME":"ONEWEB-0093","OBJECT_ID":"2020-020W","EPOCH":"2025-07-30T22:39:40.259808","MEAN_MOTION":13.11416227,"ECCENTRICITY":0.0001992,"INCLINATION":87.8813,"RA_OF_ASC_NODE":85.074,"ARG_OF_PERICENTER":91.5803,"MEAN_ANOMALY":268.5553,"EPHEMERIS_TYPE":0,"CLASSIFICATION_TYPE":"U","NORAD_CAT_ID":45444,"ELEMENT_SET_NO":999,"REV_AT_EPOCH":26057,"BSTAR":0.0012465,"MEAN_MOTION_DOT":4.54e-6,"MEAN_MOTION_DDOT":0},{"OBJECT_NAME":"ONEWEB-0029","OBJECT_ID":"2020-020X","EPOCH":"2025-07-30T21:12:47.492928","MEAN_MOTION":13.11415532,"ECCENTRICITY":0.000188,"INCLINATION":87.8811,"RA_OF_ASC_NODE":85.0982,"ARG_OF_PERICENTER":81.9292,"MEAN_ANOMALY":278.2049,"EPHEMERIS_TYPE":0,"CLASSIFICATION_TYPE":"U","NORAD_CAT_ID":45445,"ELEMENT_SET_NO":999,"REV_AT_EPOCH":26054,"BSTAR":0.00045243,"MEAN_MOTION_DOT":1.73e-6,"MEAN_MOTION_DDOT":0},{"OBJECT_NAME":"ONEWEB-0068","OBJECT_ID":"2020-020Y","EPOCH":"2025-07-30T22:39:16.206048","MEAN_MOTION":13.11417669,"ECCENTRICITY":0.000192,"INCLINATION":87.8813,"RA_OF_ASC_NODE":85.075,"ARG_OF_PERICENTER":82.0342,"MEAN_ANOMALY":278.1004,"EPHEMERIS_TYPE":0,"CLASSIFICATION_TYPE":"U","NORAD_CAT_ID":45446,"ELEMENT_SET_NO":999,"REV_AT_EPOCH":26049,"BSTAR":0.0013435,"MEAN_MOTION_DOT":4.89e-6,"MEAN_MOTION_DDOT":0},{"OBJECT_NAME":"ONEWEB-0046","OBJECT_ID":"2020-020Z","EPOCH":"2025-07-30T16:57:39.448512","MEAN_MOTION":13.11417366,"ECCENTRICITY":0.0001747,"INCLINATION":87.8814,"RA_OF_ASC_NODE":85.1326,"ARG_OF_PERICENTER":87.6721,"MEAN_ANOMALY":272.4607,"EPHEMERIS_TYPE":0,"CLASSIFICATION_TYPE":"U","NORAD_CAT_ID":45447,"ELEMENT_SET_NO":999,"REV_AT_EPOCH":26047,"BSTAR":0.0010037,"MEAN_MOTION_DOT":3.68e-6,"MEAN_MOTION_DDOT":0},{"OBJECT_NAME":"ONEWEB-0063","OBJECT_ID":"2020-020AA","EPOCH":"2025-07-30T21:18:53.180064","MEAN_MOTION":13.11415702,"ECCENTRICITY":0.0001551,"INCLINATION":87.8814,"RA_OF_ASC_NODE":85.0942,"ARG_OF_PERICENTER":84.2251,"MEAN_ANOMALY":275.9054,"EPHEMERIS_TYPE":0,"CLASSIFICATION_TYPE":"U","NORAD_CAT_ID":45448,"ELEMENT_SET_NO":999,"REV_AT_EPOCH":26058,"BSTAR":7.1301e-5,"MEAN_MOTION_DOT":3.8e-7,"MEAN_MOTION_DDOT":0},{"OBJECT_NAME":"ONEWEB-0019","OBJECT_ID":"2020-020AB","EPOCH":"2025-07-30T22:30:55.022976","MEAN_MOTION":13.11418745,"ECCENTRICITY":0.0001832,"INCLINATION":87.8811,"RA_OF_ASC_NODE":85.102,"ARG_OF_PERICENTER":77.7064,"MEAN_ANOMALY":282.4269,"EPHEMERIS_TYPE":0,"CLASSIFICATION_TYPE":"U","NORAD_CAT_ID":45449,"ELEMENT_SET_NO":999,"REV_AT_EPOCH":26043,"BSTAR":0.0012108,"MEAN_MOTION_DOT":4.42e-6,"MEAN_MOTION_DDOT":0},{"OBJECT_NAME":"ONEWEB-0094","OBJECT_ID":"2020-020AC","EPOCH":"2025-07-30T20:14:33.729216","MEAN_MOTION":13.17650582,"ECCENTRICITY":0.0001782,"INCLINATION":87.9037,"RA_OF_ASC_NODE":69.7925,"ARG_OF_PERICENTER":86.3559,"MEAN_ANOMALY":273.7776,"EPHEMERIS_TYPE":0,"CLASSIFICATION_TYPE":"U","NORAD_CAT_ID":45450,"ELEMENT_SET_NO":999,"REV_AT_EPOCH":26399,"BSTAR":-3.8925e-5,"MEAN_MOTION_DOT":-2.0e-8,"MEAN_MOTION_DDOT":0},{"OBJECT_NAME":"ONEWEB-0087","OBJECT_ID":"2020-020AD","EPOCH":"2025-07-30T21:33:19.921536","MEAN_MOTION":13.11416187,"ECCENTRICITY":0.000196,"INCLINATION":87.881,"RA_OF_ASC_NODE":85.043,"ARG_OF_PERICENTER":84.8979,"MEAN_ANOMALY":275.2373,"EPHEMERIS_TYPE":0,"CLASSIFICATION_TYPE":"U","NORAD_CAT_ID":45451,"ELEMENT_SET_NO":999,"REV_AT_EPOCH":26048,"BSTAR":-0.0012474,"MEAN_MOTION_DOT":-4.29e-6,"MEAN_MOTION_DDOT":0},{"OBJECT_NAME":"ONEWEB-0082","OBJECT_ID":"2020-020AE","EPOCH":"2025-07-30T21:28:39.105984","MEAN_MOTION":13.11414867,"ECCENTRICITY":0.0001946,"INCLINATION":87.881,"RA_OF_ASC_NODE":85.0681,"ARG_OF_PERICENTER":79.1578,"MEAN_ANOMALY":280.9769,"EPHEMERIS_TYPE":0,"CLASSIFICATION_TYPE":"U","NORAD_CAT_ID":45452,"ELEMENT_SET_NO":999,"REV_AT_EPOCH":26056,"BSTAR":-0.00083458,"MEAN_MOTION_DOT":-2.83e-6,"MEAN_MOTION_DDOT":0},{"OBJECT_NAME":"ONEWEB-0050","OBJECT_ID":"2020-020AF","EPOCH":"2025-07-30T17:53:29.231808","MEAN_MOTION":14.90868335,"ECCENTRICITY":0.0004723,"INCLINATION":87.9975,"RA_OF_ASC_NODE":284.301,"ARG_OF_PERICENTER":72.8729,"MEAN_ANOMALY":287.3016,"EPHEMERIS_TYPE":0,"CLASSIFICATION_TYPE":"U","NORAD_CAT_ID":45453,"ELEMENT_SET_NO":999,"REV_AT_EPOCH":29252,"BSTAR":0.00031272,"MEAN_MOTION_DOT":3.104e-5,"MEAN_MOTION_DDOT":0}]
