ONEWEB-0092             
1 45437U 20020P   25211.88557209  .00000110  00000+0  27530-3 0  9993
2 45437  87.8804  85.0999 0001533  84.0200 276.1103 13.11416171260673
ONEWEB-0085             
1 45438U 20020Q   25211.91438995 -.00000450  00000+0 -13046-2 0  9993
2 45438  87.8810  85.1067 0001615  82.3241 277.8070 13.11418163260567
ONEWEB-0096             
1 45439U 20020R   25211.69482598 -.00000057  00000+0 -19593-3 0  9994
2 45439  87.8820  85.1176 0001949  81.3341 278.8008 13.11418800260526
ONEWEB-0037             
1 45440U 20020S   25211.90422407 -.00000539  00000+0 -15556-2 0  9992
2 45440  87.8823  85.0399 0001674  81.8592 278.2726 13.11415902260582
ONEWEB-0042             
1 45441U 20020T   25211.91339698 -.00000400  00000+0 -11655-2 0  9996
2 45441  87.8815  85.0834 0001750  83.4022 276.7305 13.11420748260556
ONEWEB-0098             
1 45442U 20020U   25211.90930288 -.00000641  00000+0 -18459-2 0  9994
2 45442  87.8814  85.0944 0001786  71.3324 288.7998 13.11416649260532
ONEWEB-0055             
1 45443U 20020V   25211.89235570 -.00000151  00000+0 -46070-3 0  9992
2 45443  87.8806  85.0999 0001760  77.3980 282.7344 13.11415642260508
ONEWEB-0093             
1 45444U 20020W   25211.94421597  .00000454  00000+0  12465-2 0  9999
2 45444  87.8813  85.0740 0001992  91.5803 268.5553 13.11416227260571
ONEWEB-0029             
1 45445U 20020X   25211.88388302  .00000173  00000+0  45243-3 0  9998
2 45445  87.8811  85.0982 0001880  81.9292 278.2049 13.11415532260542
ONEWEB-0068             
1 45446U 20020Y   25211.94393757  .00000489  00000+0  13435-2 0  9993
2 45446  87.8813  85.0750 0001920  82.0342 278.1004 13.11417669260498
ONEWEB-0046             
1 45447U 20020Z   25211.70670658  .00000368  00000+0  10037-2 0  9997
2 45447  87.8814  85.1326 0001747  87.6721 272.4607 13.11417366260477
ONEWEB-0063             
1 45448U 20020AA  25211.88811551  .00000038  00000+0  71301-4 0  9993
2 45448  87.8814  85.0942 0001551  84.2251 275.9054 13.11415702260583
ONEWEB-0019             
1 45449U 20020AB  25211.93813684  .00000442  00000+0  12108-2 0  9996
2 45449  87.8811  85.1020 0001832  77.7064 282.4269 13.11418745260435
ONEWEB-0094             
1 45450U 20020AC  25211.84344594 -.00000002  00000+0 -38925-4 0  9998
2 45450  87.9037  69.7925 0001782  86.3559 273.7776 13.17650582263992
ONEWEB-0087             
1 45451U 20020AD  25211.89814724 -.00000429  00000+0 -12474-2 0  9993
2 45451  87.8810  85.0430 0001960  84.8979 275.2373 13.11416187260486
ONEWEB-0082             
1 45452U 20020AE  25211.89489706 -.00000283  00000+0 -83458-3 0  9991
2 45452  87.8810  85.0681 0001946  79.1578 280.9769 13.11414867260565
ONEWEB-0050             
1 45453U 20020AF  25211.74547722  .00003104  00000+0  31272-3 0  9999
2 45453  87.9975 284.3010 0004723  72.8729 287.3016 14.90868335292521
